HAWK-C                  
1 43799U 18099AT  23246.45820636  .00005446  00000+0  44238-3 0  9992
2 43799  97.5662 307.4239 0010533 203.2081 156.8669 14.99966588260212
ICEYE-X2                
1 43800U 18099AU  23247.11687833  .00005006  00000+0  40536-3 0  9998
2 43800  97.5690 307.2353 0010631 185.8627 174.2474 15.00127818259462
SKYSAT-C13              
1 43802U 18099AW  23246.43984754  .00023745  00000+0  52394-3 0  9991
2 43802  97.0941 305.6628 0008163 182.1397 177.9819 15.43851992265189
JY1SAT (JO-97)          
1 43803U 18099AX  23246.89504838  .00006650  00000+0  51373-3 0  9995
2 43803  97.5682 307.5081 0012420 186.0258 174.0819 15.01794138259500
SUOMI-100               
1 43804U 18099AY  23246.44424409  .00007174  00000+0  55853-3 0  9991
2 43804  97.5738 306.8231 0017178 205.3803 154.6579 15.01419498259430
AL-FARABI 2             
1 43805U 18099AZ  23246.42324037  .00010024  00000+0  73946-3 0  9997
2 43805  97.5542 307.9261 0012434 186.5230 173.5836 15.03415561259506
EUCROPIS                
1 43807U 18099BB  23246.71030950  .00006009  00000+0  47824-3 0  9993
2 43807  97.5679 307.9780 0004070 164.9562 195.1784 15.00747642258876
POLAR SCOUT YUKON       
1 43808U 18099BC  23247.02798107  .00006369  00000+0  48837-3 0  9998
2 43808  97.6033 309.4162 0007724 246.5722 113.4691 15.02135046259240
CENTAURI-1              
1 43809U 18099BD  23246.42145196  .00004447  00000+0  36145-3 0  9990
2 43809  97.5632 306.7088 0015873 222.1980 137.8023 14.99987260259092
NEXTSAT-1               
1 43811U 18099BF  23247.09848320  .00003188  00000+0  26940-3 0  9999
2 43811  97.5645 306.7281 0012247 210.5631 149.4879 14.98722713259019
GLOBAL-2                
1 43812U 18099BG  23247.10994241  .00003887  00000+0  32086-3 0  9990
2 43812  97.5603 306.3678 0012960 212.7434 147.2987 14.99492719259058
BRIO                    
1 43813U 18099BH  23247.12121586  .00010051  00000+0  70983-3 0  9996
2 43813  97.6072 313.4499 0008211 188.1140 171.9955 15.05093594259363
FALCONSAT-6             
1 43815U 18099BK  23246.76016699  .00002176  00000+0  14297-3 0  9990
2 43815  97.6073 313.8713 0028177 210.9597 148.9971 15.08369738259374
SPACEBEE-7              
1 43816U 18099BL  23246.90142415  .00008805  00000+0  64431-3 0  9993
2 43816  97.5916 310.2394 0011931 180.8109 179.3099 15.03763150259134
SPACEBEE-5              
1 43817U 18099BM  23247.01453961  .00047956  00000+0  20005-2 0  9996
2 43817  97.5845 319.5708 0005000 170.6391 189.4940 15.23503392259675
SPACEBEE-6              
1 43818U 18099BN  23246.45263104  .00017834  00000+0  11580-2 0  9992
2 43818  97.5832 312.2175 0011523 198.9744 161.1056 15.08049380259357
EXCITE                  
1 43819U 18099BP  23246.73781825  .00002019  00000+0  17461-3 0  9993
2 43819  97.5626 305.5148 0011439 215.9628 144.0827 14.98228908258966
SEAHAWK-1               
1 43820U 18099BQ  23246.40628396  .00005634  00000+0  44869-3 0  9990
2 43820  97.5636 306.0749 0016375 215.9856 144.0266 15.00651090258816
GEO-KOMPSAT-2A          
1 43823U 18100A   23247.06507412 -.00000356  00000+0  00000+0 0  9996
2 43823   0.0182  94.0147 0001696  30.4651  10.1343  1.00273048 17464
GSAT-11                 
1 43824U 18100B   23247.06985503 -.00000090  00000+0  00000+0 0  9993
2 43824   0.0981 275.0930 0006134 207.0017 319.9828  1.00271979 17439
SAUDISAT 5A             
1 43831U 18102A   23247.09561094  .00004157  00000+0  24231-3 0  9994
2 43831  97.4478 314.7258 0014822  93.1682 267.1245 15.12429031261156
SAUDISAT 5B             
1 43833U 18102C   23247.11197998  .00004369  00000+0  25078-3 0  9992
2 43833  97.4516 316.1541 0015684  97.4914 262.8099 15.12949748261223
TOMSAT R3 (AEROCUBE 11B)
1 43849U 18104A   23247.13585850  .00058348  00000+0  85139-3 0  9991
2 43849  85.0180 110.6112 0010625  45.9325 314.2807 15.55389172262883
SHIELDS 1               
1 43850U 18104B   23247.06942398  .00008827  00000+0  30336-3 0  9995
2 43850  85.0242 116.6916 0015112  68.3466 291.9388 15.29823842262167
STF-1                   
1 43852U 18104D   23246.09007749  .00051858  00000+0  95230-3 0  9997
2 43852  85.0191 113.7330 0011611  67.7039 292.5447 15.48968527262433
CHOMPTT                 
1 43855U 18104G   23247.12707010  .00027865  00000+0  59411-3 0  9995
2 43855  85.0252 112.2812 0012362  32.3020 327.8989 15.44681776262746
CP11 (ISX)              
1 43856U 18104H   23246.08274414  .00028284  00000+0  64798-3 0  9997
2 43856  85.0221 115.7939 0012692  75.9484 284.3179 15.42541461262241
TOMSAT EAGLESCOUT       
1 43861U 18104N   23246.61417484  .00058453  00000+0  10065-2 0  9996
2 43861  85.0284 113.9930 0011518  48.8686 311.3564 15.50780380262676
GSAT-7A                 
1 43864U 18105A   23246.76160435  .00000014  00000+0  00000+0 0  9992
2 43864   0.0758 271.2073 0001657 240.0793 168.2698  1.00270736 17243
COSMOS 2533             
1 43867U 18107A   23247.06907184 -.00000052  00000+0  00000+0 0  9994
2 43867   0.0151 117.5676 0000418  93.0089 227.2075  1.00274777 17224
HONGYUN 1               
1 43871U 18108A   23247.10149030 -.00000028  00000+0  25329-4 0  9992
2 43871  99.8529 267.6081 0012579  19.1989 340.9617 13.50545311231787
NAVSTAR 77 (USA 289)    
1 43873U 18109A   23246.17670955  .00000002  00000+0  00000+0 0  9991
2 43873  55.1925 132.4112 0025625 191.2479 357.6601  2.00568709 34654
TJS-3                   
1 43874U 18110A   23246.70386193 -.00000011  00000+0  00000+0 0  9992
2 43874   0.0971 284.3512 0005080 258.4484 226.1745  1.00271701 17282
KANOPUS-V 5             
1 43876U 18111A   23247.08058635  .00004192  00000+0  18730-3 0  9990
2 43876  97.4063 154.0769 0002006  86.1372 274.0093 15.21884073257970
KANOPUS-V 6             
1 43877U 18111B   23247.05177291  .00004091  00000+0  18215-3 0  9994
2 43877  97.4065 154.0674 0002018  88.0905 272.0562 15.22016258257965
ISAT                    
1 43879U 18111D   23246.99007819  .00007668  00000+0  56559-3 0  9992
2 43879  97.6358 150.3721 0011893 252.8013 107.1911 15.03514140254154
UWE-4                   
1 43880U 18111E   23246.46562512  .00007840  00000+0  58206-3 0  9995
2 43880  97.6269 150.4535 0015816 266.4737  93.4679 15.03217078256121
D-STAR ONE (SPARROW)    
1 43881U 18111F   23246.31267227  .00008780  00000+0  64112-3 0  9992
2 43881  97.6401 151.1470 0009380 309.2590  50.7803 15.03870678256124
LEMUR-2-CHRISTINAHOLT   
1 43882U 18111G   23246.46136952  .00012669  00000+0  85153-3 0  9998
2 43882  97.6460 153.8669 0007559 224.0832 135.9794 15.06882530256283
LEMUR-2-TINYKEV         
1 43883U 18111H   23246.51644608  .00017027  00000+0  10888-2 0  9992
2 43883  97.6242 153.8115 0007836 216.0396 144.0305 15.08653737256334
LEMUR-2-REMY-COLTON     
1 43884U 18111J   23246.53452838  .00013356  00000+0  87684-3 0  9997
2 43884  97.6374 154.6699 0001967 124.2406 235.9008 15.07761830254351
LEMUR-2-GUSTAVO         
1 43885U 18111K   23246.48908924  .00013680  00000+0  90851-3 0  9994
2 43885  97.6368 154.0086 0013802 229.3795 130.6233 15.07256025256301
LEMUR-2-ZO              
1 43886U 18111L   23246.54524089  .00014245  00000+0  94792-3 0  9994
2 43886  97.6264 153.9856 0011437 248.8437 111.1569 15.07195373256327
LEMUR-2-NATALIEMURRAY   
1 43887U 18111M   23246.57569641  .00013741  00000+0  90730-3 0  9999
2 43887  97.6374 154.8838 0010426 189.3032 170.8004 15.07501824256358
LEMUR-2-SARAHBETTYBOO   
1 43888U 18111N   23246.67013257  .00013828  00000+0  90226-3 0  9994
2 43888  97.6711 156.6321 0009994 287.2218  72.7916 15.07944541256385
LEMUR-2-DAISY-HARPER    
1 43889U 18111P   23246.53507994  .00016946  00000+0  10991-2 0  9990
2 43889  97.6623 156.3788 0007778 287.8341  72.2038 15.08134993256364
GRUS-1A                 
1 43890U 18111Q   23247.07354258  .00001433  00000+0  13647-3 0  9992
2 43890  97.5883 136.0002 0004058 357.9662   2.1542 14.94899563255502
ZACUBE-2                
1 43907U 18111AH  23247.07474386  .00035147  00000+0  73887-3 0  9997
2 43907  97.1234 125.0045 0010516 289.6977  70.3138 15.45185133261310
LUME 1                  
1 43908U 18111AJ  23246.61455138  .00053873  00000+0  86952-3 0  9994
2 43908  97.1226 128.9915 0007560 270.8568  89.1819 15.52695887261531
YUNHAI 2-01             
1 43909U 18112A   23247.07034719  .00000086  00000+0  98917-4 0  9998
2 43909  50.0123  38.6266 0000052  97.3270 262.7651 14.28033080245722
YUNHAI 2-02             
1 43910U 18112B   23247.09859817  .00000057  00000+0  87174-4 0  9997
2 43910  50.0122 102.1217 0004635 253.8261 106.2144 14.28046897244847
YUNHAI 2-03             
1 43911U 18112C   23247.05271070  .00000078  00000+0  95691-4 0  9999
2 43911  50.0148 341.8137 0000990 153.0573 207.0394 14.28000197246512
YUNHAI 2-04             
1 43912U 18112D   23247.09726956  .00000037  00000+0  79215-4 0  9991
2 43912  50.0113 281.7554 0015380  15.3171 344.8206 14.28056982242187
YUNHAI 2-05             
1 43913U 18112E   23247.11918025  .00000102  00000+0  10529-3 0  9990
2 43913  50.0081 161.2075 0005401  31.5339 328.5899 14.28024827243991
HONGYAN 1 (CHONGQING)   
1 43914U 18112F   23247.07984350 -.00000115  00000+0  25016-4 0  9993
2 43914  50.0096  17.8256 0006620  41.8446 318.2938 13.43737136229884
YUNHAI 2-06             
1 43915U 18112G   23247.07002248  .00000105  00000+0  10653-3 0  9999
2 43915  50.0113 221.9646 0007341 355.5134   4.5714 14.28018665243084
CHINASAT 2D (ZX 2D)     
1 43920U 19001A   23246.57942503 -.00000351  00000+0  00000+0 0  9999
2 43920   0.0213 128.4914 0001626 132.8339  59.7334  1.00267663 43873
IRIDIUM 180             
1 43922U 19002A   23246.77142485  .00000113  00000+0  33335-4 0  9992
2 43922  86.3933  58.7896 0001937  91.2902 268.8516 14.34218070243207
IRIDIUM 176             
1 43923U 19002B   23246.47850645  .00000398  00000+0  59140-4 0  9991
2 43923  86.6060  58.9473 0002305  89.1803 270.9678 14.72250101249517
